{"type": "FeatureCollection", "features": [ {"type": "Feature", "properties": {"norad_id": 66815, "name": "STARLINK-35985", "group": "last-30-days", "lat": 2.131902323980667, "lon": 57.48596186582629, "alt_km": 296.1621895116232, "timestamp": "2025-12-14T16:47:39.438301+00:00", "meta": {"OBJECT_NAME": "STARLINK-35985", "OBJECT_ID": "2025-278AA", "EPOCH": "2025-12-12T18:52:41.807136", "MEAN_MOTION": 15.89981059, "ECCENTRICITY": 0.00144492, "INCLINATION": 42.9985, "RA_OF_ASC_NODE": 251.6744, "ARG_OF_PERICENTER": 289.6758, "MEAN_ANOMALY": 70.2558, "EPHEMERIS_TYPE": 0, "CLASSIFICATION_TYPE": "U", "NORAD_CAT_ID": 66815, "ELEMENT_SET_NO": 999, "REV_AT_EPOCH": 305, "BSTAR": 0.0028507856, "MEAN_MOTION_DOT": 0.00887373, "MEAN_MOTION_DDOT": 0.00032777577}, "tle": {"line1": "1 66815U 25278AA  25346.78659499  .00887373  32778-3  28508-2 0  9998", "line2": "2 66815  42.9985 251.6744 0014449 289.6758  70.2558 15.89981059  3051"}}, "geometry": {"type": "Point", "coordinates": [57.48596186582629, 2.131902323980667]}}, {"type": "Feature", "properties": {"norad_id": 66816, "name": "STARLINK-36098", "group": "last-30-days", "lat": 37.46629018422622, "lon": 4.588953942359935, "alt_km": 318.6861007092948, "timestamp": "2025-12-14T16:47:39.438313+00:00", "meta": {"OBJECT_NAME": "STARLINK-36098", "OBJECT_ID": "2025-278AB", "EPOCH": "2025-12-13T17:35:53.748672", "MEAN_MOTION": 15.85187847, "ECCENTRICITY": 0.00059144, "INCLINATION": 42.9969, "RA_OF_ASC_NODE": 245.8692, "ARG_OF_PERICENTER": 207.8499, "MEAN_ANOMALY": 152.2058, "EPHEMERIS_TYPE": 0, "CLASSIFICATION_TYPE": "U", "NORAD_CAT_ID": 66816, "ELEMENT_SET_NO": 999, "REV_AT_EPOCH": 199, "BSTAR": -0.0069954529, "MEAN_MOTION_DOT": -0.01517008, "MEAN_MOTION_DDOT": 0}, "tle": {"line1": "1 66816U 25278AB  25347.73326098 -.01517008  00000+0 -69955-2 0  9999", "line2": "2 66816  42.9969 245.8692 0005914 207.8499 152.2058 15.85187847  1998"}}, "geometry": {"type": "Point", "coordinates": [4.588953942359935, 37.46629018422622]}}, {"type": "Feature", "properties": {"norad_id": 66817, "name": "STARLINK-35995", "group": "last-30-days", "lat": 36.05875168026493, "lon": 8.529139495825326, "alt_km": 330.82959488467077, "timestamp": "2025-12-14T16:47:39.438323+00:00", "meta": {"OBJECT_NAME": "STARLINK-35995", "OBJECT_ID": "2025-278AC", "EPOCH": "2025-12-13T23:37:07.027104", "MEAN_MOTION": 15.84625504, "ECCENTRICITY": 0.00068164, "INCLINATION": 42.9968, "RA_OF_ASC_NODE": 244.3089, "ARG_OF_PERICENTER": 250.99, "MEAN_ANOMALY": 109.0235, "EPHEMERIS_TYPE": 0, "CLASSIFICATION_TYPE": "U", "NORAD_CAT_ID": 66817, "ELEMENT_SET_NO": 999, "REV_AT_EPOCH": 203, "BSTAR": -0.018039003, "MEAN_MOTION_DOT": -0.03566872, "MEAN_MOTION_DDOT": 0}, "tle": {"line1": "1 66817U 25278AC  25347.98410911 -.03566872  00000+0 -18039-1 0  9996", "line2": "2 66817  42.9968 244.3089 0006816 250.9900 109.0235 15.84625504  2039"}}, "geometry": {"type": "Point", "coordinates": [8.529139495825326, 36.05875168026493]}}, {"type": "Feature", "properties": {"norad_id": 66818, "name": "STARLINK-35994", "group": "last-30-days", "lat": 32.294073892319155, "lon": 17.18897014547549, "alt_km": 309.566682476986, "timestamp": "2025-12-14T16:47:39.438336+00:00", "meta": {"OBJECT_NAME": "STARLINK-35994", "OBJECT_ID": "2025-278AD", "EPOCH": "2025-12-13T23:38:01.238784", "MEAN_MOTION": 15.86048323, "ECCENTRICITY": 0.0011339, "INCLINATION": 42.998, "RA_OF_ASC_NODE": 244.3135, "ARG_OF_PERICENTER": 237.9783, "MEAN_ANOMALY": 121.9989, "EPHEMERIS_TYPE": 0, "CLASSIFICATION_TYPE": "U", "NORAD_CAT_ID": 66818, "ELEMENT_SET_NO": 999, "REV_AT_EPOCH": 203, "BSTAR": 0.0016883405, "MEAN_MOTION_DOT": 0.00455118, "MEAN_MOTION_DDOT": 0}, "tle": {"line1": "1 66818U 25278AD  25347.98473656  .00455118  00000+0  16883-2 0  9993", "line2": "2 66818  42.9980 244.3135 0011339 237.9783 121.9989 15.86048323  2035"}}, "geometry": {"type": "Point", "coordinates": [17.18897014547549, 32.294073892319155]}}, {"type": "Feature", "properties": {"norad_id": 66819, "name": "STARLINK-35989", "group": "last-30-days", "lat": 28.699450164173005, "lon": 23.900047486615286, "alt_km": 329.24142119174394, "timestamp": "2025-12-14T16:47:39.438346+00:00", "meta": {"OBJECT_NAME": "STARLINK-35989", "OBJECT_ID": "2025-278AE", "EPOCH": "2025-12-13T02:25:59.508480", "MEAN_MOTION": 15.87984782, "ECCENTRICITY": 0.00193199, "INCLINATION": 42.9981, "RA_OF_ASC_NODE": 249.7349, "ARG_OF_PERICENTER": 275.1685, "MEAN_ANOMALY": 84.6984, "EPHEMERIS_TYPE": 0, "CLASSIFICATION_TYPE": "U", "NORAD_CAT_ID": 66819, "ELEMENT_SET_NO": 999, "REV_AT_EPOCH": 189, "BSTAR": -0.0055008218, "MEAN_MOTION_DOT": -0.01562027, "MEAN_MOTION_DDOT": 0.00065817872}, "tle": {"line1": "1 66819U 25278AE  25347.10138320 -.01562027  65818-3 -55008-2 0  9999", "line2": "2 66819  42.9981 249.7349 0019319 275.1685  84.6984 15.87984782  1896"}}, "geometry": {"type": "Point", "coordinates": [23.900047486615286, 28.699450164173005]}}, {"type": "Feature", "properties": {"norad_id": 66820, "name": "KOMPSAT-7", "group": "last-30-days", "lat": 63.46511053810353, "lon": 130.12430759813014, "alt_km": 565.2668403827265, "timestamp": "2025-12-14T16:47:39.438359+00:00", "meta": {"OBJECT_NAME": "KOMPSAT-7", "OBJECT_ID": "2025-279A", "EPOCH": "2025-12-14T00:15:33.583968", "MEAN_MOTION": 14.98961739, "ECCENTRICITY": 0.00087365, "INCLINATION": 97.6413, "RA_OF_ASC_NODE": 293.8524, "ARG_OF_PERICENTER": 220.6556, "MEAN_ANOMALY": 139.4015, "EPHEMERIS_TYPE": 0, "CLASSIFICATION_TYPE": "U", "NORAD_CAT_ID": 66820, "ELEMENT_SET_NO": 999, "REV_AT_EPOCH": 184, "BSTAR": 0.00030886628, "MEAN_MOTION_DOT": 3.683e-05, "MEAN_MOTION_DDOT": 0}, "tle": {"line1": "1 66820U 25279A   25348.01080537  .00003683  00000+0  30887-3 0  9991", "line2": "2 66820  97.6413 293.8524 0008736 220.6556 139.4015 14.98961739  1840"}}, "geometry": {"type": "Point", "coordinates": [130.12430759813014, 63.46511053810353]}}, {"type": "Feature", "properties": {"norad_id": 66821, "name": "STARLINK-35966", "group": "last-30-days", "lat": -19.324277632132404, "lon": -174.08333220996573, "alt_km": 333.6723046478028, "timestamp": "2025-12-14T16:47:39.438372+00:00", "meta": {"OBJECT_NAME": "STARLINK-35966", "OBJECT_ID": "2025-280A", "EPOCH": "2025-12-13T19:35:17.807712", "MEAN_MOTION": 15.77822014, "ECCENTRICITY": 0.00110294, "INCLINATION": 69.992, "RA_OF_ASC_NODE": 195.7735, "ARG_OF_PERICENTER": 283.3749, "MEAN_ANOMALY": 76.6221, "EPHEMERIS_TYPE": 0, "CLASSIFICATION_TYPE": "U", "NORAD_CAT_ID": 66821, "ELEMENT_SET_NO": 999, "REV_AT_EPOCH": 309, "BSTAR": 0.0041663431, "MEAN_MOTION_DOT": 0.00770505, "MEAN_MOTION_DDOT": 0}, "tle": {"line1": "1 66821U 25280A   25347.81617833  .00770505  00000+0  41663-2 0  9993", "line2": "2 66821  69.9920 195.7735 0011029 283.3749  76.6221 15.77822014  3099"}}, "geometry": {"type": "Point", "coordinates": [-174.08333220996573, -19.324277632132404]}}, {"type": "Feature", "properties": {"norad_id": 66822, "name": "STARLINK-35958", "group": "last-30-days", "lat": -26.49763767901927, "lon": -177.1972660113597, "alt_km": 348.5573214146889, "timestamp": "2025-12-14T16:47:39.438382+00:00", "meta": {"OBJECT_NAME": "STARLINK-35958", "OBJECT_ID": "2025-280B", "EPOCH": "2025-12-13T19:34:40.533024", "MEAN_MOTION": 15.76857205, "ECCENTRICITY": 0.00092883, "INCLINATION": 69.9929, "RA_OF_ASC_NODE": 195.7731, "ARG_OF_PERICENTER": 292.9803, "MEAN_ANOMALY": 67.0416, "EPHEMERIS_TYPE": 0, "CLASSIFICATION_TYPE": "U", "NORAD_CAT_ID": 66822, "ELEMENT_SET_NO": 999, "REV_AT_EPOCH": 309, "BSTAR": -0.011654885, "MEAN_MOTION_DOT": -0.0164749, "MEAN_MOTION_DDOT": 0}, "tle": {"line1": "1 66822U 25280B   25347.81574691 -.01647490  00000+0 -11655-1 0  9994", "line2": "2 66822  69.9929 195.7731 0009288 292.9803  67.0416 15.76857205  3095"}}, "geometry": {"type": "Point", "coordinates": [-177.1972660113597, -26.49763767901927]}}, {"type": "Feature", "properties": {"norad_id": 66823, "name": "STARLINK-35957", "group": "last-30-days", "lat": -19.680412297176026, "lon": -174.22756251231834, "alt_km": 343.8097172149719, "timestamp": "2025-12-14T16:47:39.438392+00:00", "meta": {"OBJECT_NAME": "STARLINK-35957", "OBJECT_ID": "2025-280C", "EPOCH": "2025-12-13T07:24:03.287232", "MEAN_MOTION": 15.7841229, "ECCENTRICITY": 0.00029253, "INCLINATION": 69.9931, "RA_OF_ASC_NODE": 197.2154, "ARG_OF_PERICENTER": 292.1559, "MEAN_ANOMALY": 67.933, "EPHEMERIS_TYPE": 0, "CLASSIFICATION_TYPE": "U", "NORAD_CAT_ID": 66823, "ELEMENT_SET_NO": 999, "REV_AT_EPOCH": 301, "BSTAR": -0.0041443241, "MEAN_MOTION_DOT": -0.00665505, "MEAN_MOTION_DDOT": 0}, "tle": {"line1": "1 66823U 25280C   25347.30837138 -.00665505  00000+0 -41443-2 0  9992", "line2": "2 66823  69.9931 197.2154 0002925 292.1559  67.9330 15.78412290  3015"}}, "geometry": {"type": "Point", "coordinates": [-174.22756251231834, -19.680412297176026]}}, {"type": "Feature", "properties": {"norad_id": 66824, "name": "STARLINK-35896", "group": "last-30-days", "lat": -16.677735112611835, "lon": -173.00975822440793, "alt_km": 343.8704541538664, "timestamp": "2025-12-14T16:47:39.438402+00:00", "meta": {"OBJECT_NAME": "STARLINK-35896", "OBJECT_ID": "2025-280D", "EPOCH": "2025-12-13T04:20:59.538624", "MEAN_MOTION": 15.78881277, "ECCENTRICITY": 0.00039504, "INCLINATION": 69.9932, "RA_OF_ASC_NODE": 197.5749, "ARG_OF_PERICENTER": 269.5598, "MEAN_ANOMALY": 90.515, "EPHEMERIS_TYPE": 0, "CLASSIFICATION_TYPE": "U", "NORAD_CAT_ID": 66824, "ELEMENT_SET_NO": 999, "REV_AT_EPOCH": 299, "BSTAR": -0.0044799056, "MEAN_MOTION_DOT": -0.00729751, "MEAN_MOTION_DDOT": 0}, "tle": {"line1": "1 66824U 25280D   25347.18124466 -.00729751  00000+0 -44799-2 0  9993", "line2": "2 66824  69.9932 197.5749 0003950 269.5598  90.5150 15.78881277  2993"}}, "geometry": {"type": "Point", "coordinates": [-173.00975822440793, -16.677735112611835]}}]}